ATLAS CENTAUR 2         
1 00694U 63047A   26164.03999806  .00001310  00000+0  14515-3 0  9995
2 00694  30.3568  22.5858 0545971 200.9394 156.8018 14.12511225145119
THOR AGENA D R/B        
1 00733U 64002A   26164.59860987  .00000156  00000+0  72764-4 0  9997
2 00733  99.1155 183.1370 0032490 341.1874  18.8106 14.34064368252040
SL-3 R/B                
1 00877U 64053B   26164.42930206  .00000097  00000+0  43035-4 0  9999
2 00877  65.0776  50.5313 0081071 262.2909  96.8979 14.61425244280785
SL-8 R/B                
1 02802U 67045B   26164.48746596  .00000205  00000+0  64156-4 0  9994
2 02802  74.0094 169.1686 0063575 154.5267 205.9048 14.45680807102869
SL-8 R/B                
1 03230U 68040B   26164.59053681  .00002607  00000+0  19142-3 0  9996
2 03230  74.0299 117.6458 0025959 271.3896  88.4319 15.03799546104422
OAO 2                   
1 03597U 68110A   26164.46728146  .00000176  00000+0  52452-4 0  9992
2 03597  34.9936  90.4488 0006180 247.1967 112.8071 14.47350604 32980
ISIS 1                  
1 03669U 69009A   26164.20858026  .00000044  00000+0  32747-4 0  9992
2 03669  88.4426 144.8369 1706105 256.2660  84.3511 11.30433413359327
SERT 2                  
1 04327U 70009A   26164.59586935 -.00000022  00000+0  26986-4 0  9990
2 04327  99.2843 102.5017 0003974 284.7158 248.2426 13.58738878792911
SL-3 R/B                
1 05118U 71028B   26164.61270505  .00049194  00000+0  41564-3 0  9997
2 05118  81.2332 292.8141 0013820 293.3449  66.6354 15.69423395  3685
ASTEX 1                 
1 05560U 71089A   26164.55483734  .00000454  00000+0  11532-3 0  9996
2 05560  92.6999 182.6860 0017703 116.8923 243.4095 14.50849192876204
SL-8 R/B                
1 05730U 71119B   26164.61217944  .00003454  00000+0  17870-3 0  9998
2 05730  73.8874 356.1645 0543771 302.8497  52.1410 14.39486532669283
OAO 3 (COPERNICUS)      
1 06153U 72065A   26164.56380016  .00000258  00000+0  57251-4 0  9991
2 06153  35.0052 111.0501 0007160 228.2509 298.5671 14.60058466860218
ATLAS CENTAUR R/B       
1 06155U 72065B   26164.15696250  .00001043  00000+0  14466-3 0  9991
2 06155  35.0011 106.1686 0032787  94.2707 266.1741 14.77913609855397
SL-8 R/B                
1 08459U 75112B   26164.56289654  .00000221  00000+0  81173-4 0  9994
2 08459  74.0595 202.5414 0016864 269.9280  89.9942 14.38244629645657
SL-3 R/B                
1 10114U 77057B   26164.59677972  .00011044  00000+0  21444-3 0  9991
2 10114  97.5828 340.9645 0005466 301.2567  58.8146 15.47814412683156
SEASAT 1                
1 10967U 78064A   26164.36614914  .00000253  00000+0  10914-3 0  9998
2 10967 108.0167 326.2679 0001923 240.4632 119.6322 14.46240780520343
SL-14 R/B               
1 11267U 79011B   26164.62109188  .00000500  00000+0  46688-4 0  9999
2 11267  82.5239   5.5388 0017539  96.4397 263.8821 14.92011365543082
SL-8 R/B                
1 11574U 79089B   26164.59841260  .00000195  00000+0  66869-4 0  9998
2 11574  74.0694 273.5007 0014917  58.7059 301.5556 14.42402582449936
SL-14 R/B               
1 11672U 80005B   26164.63016173  .00000431  00000+0  40967-4 0  9993
2 11672  82.5143 216.2144 0015160 197.9943 162.0741 14.91026375490784
SL-8 R/B                
1 12139U 81003B   26164.58353731  .00016495  00000+0  40490-3 0  9996
2 12139  82.9366 201.1199 0250559 203.7551 155.1959 15.14120800329173
SL-3 R/B                
1 12465U 81046B   26164.56055536  .00011165  00000+0  24163-3 0  9993
2 12465  81.2291 174.4376 0018879  49.8315 310.4578 15.44127431453213
SL-3 R/B                
1 12904U 81103B   26164.57020447  .00005236  00000+0  22617-3 0  9993
2 12904  81.1586 100.8819 0011988 329.2644  30.7885 15.22257516987811
SL-3 R/B                
1 13068U 82013B   26164.54295369  .00003670  00000+0  15516-3 0  9990
2 13068  81.1749  48.3358 0021155 213.4690 146.5207 15.22766845418936
SL-3 R/B                
1 13154U 82039B   26164.59026217  .00003385  00000+0  20200-3 0  9992
2 13154  81.1437 105.2425 0029270   8.0986 352.0705 15.10517959396115
SL-3 R/B                
1 13403U 82079B   26164.57487206  .00005090  00000+0  19686-3 0  9991
2 13403  81.1469  79.7598 0023422 197.8115 162.2301 15.25761632392313
SL-14 R/B               
1 13553U 82092B   26164.15858074  .00000377  00000+0  39444-4 0  9999
2 13553  82.5683  52.0730 0020011 348.9555 125.4530 14.86745207343117
SL-3 R/B                
1 13819U 83010B   26164.63583706  .00015112  00000+0  27571-3 0  9995
2 13819  81.1024 244.3376 0015713  74.2973 286.0005 15.49155958372788
SL-3 R/B                
1 14208U 83075B   26164.56128593  .00009868  00000+0  24454-3 0  9998
2 14208  97.6097 172.9175 0019024 243.1238 116.8064 15.40432103344905
COSMOS 1536             
1 14699U 84013A   26164.61920130  .00005464  00000+0  21713-3 0  9991
2 14699  82.5443  12.3994 0012874 309.4671  50.5426 15.25018046287233
SL-14 R/B               
1 14820U 84027B   26164.44426710  .00000425  00000+0  45674-4 0  9993
2 14820  82.5410 155.2271 0018493  21.2860 338.9122 14.86057171261854
